{
  "type": "FeatureCollection",
  "features": [
    {
      "type": "Feature",
      "properties": {
        "norad_id": 66955,
        "name": "HULIANWANG DIGUI-116",
        "group": "last-30-days",
        "lat": -14.868726879972,
        "lon": -17.38277281866398,
        "alt_km": 1018.8073238581355,
        "timestamp": "2025-12-19T20:42:58.815141+00:00",
        "meta_object_name": "HULIANWANG DIGUI-116",
        "meta_object_id": "2025-287C",
        "meta_epoch": "2025-12-18T14:56:21.725088",
        "meta_mean_motion": 13.67658665,
        "meta_eccentricity": 0.00085044,
        "meta_inclination": 86.4902,
        "meta_ra_of_asc_node": 344.003,
        "meta_arg_of_pericenter": 181.1085,
        "meta_mean_anomaly": 179.0056,
        "meta_ephemeris_type": 0,
        "meta_classification_type": "U",
        "meta_norad_cat_id": 66955,
        "meta_element_set_no": 999,
        "meta_rev_at_epoch": 133,
        "meta_bstar": 0.00014472334,
        "meta_mean_motion_dot": 1.39e-06,
        "meta_mean_motion_ddot": 0,
        "tle_line1": "1 66955U 25287C   25352.62247367  .00000139  00000+0  14472-3 0  9992",
        "tle_line2": "2 66955  86.4902 344.0030 0008504 181.1085 179.0056 13.67658665  1335"
      },
      "geometry": {
        "type": "Point",
        "coordinates": [
          -17.38277281866398,
          -14.868726879972
        ]
      }
    },
    {
      "type": "Feature",
      "properties": {
        "norad_id": 66956,
        "name": "HULIANWANG DIGUI-117",
        "group": "last-30-days",
        "lat": -10.423317494265872,
        "lon": -17.084640293278795,
        "alt_km": 1017.4622995011978,
        "timestamp": "2025-12-19T20:42:58.815151+00:00",
        "meta_object_name": "HULIANWANG DIGUI-117",
        "meta_object_id": "2025-287D",
        "meta_epoch": "2025-12-18T14:55:12.079776",
        "meta_mean_motion": 13.67770338,
        "meta_eccentricity": 0.00076767,
        "meta_inclination": 86.4971,
        "meta_ra_of_asc_node": 344.0126,
        "meta_arg_of_pericenter": 176.3616,
        "meta_mean_anomaly": 183.76,
        "meta_ephemeris_type": 0,
        "meta_classification_type": "U",
        "meta_norad_cat_id": 66956,
        "meta_element_set_no": 999,
        "meta_rev_at_epoch": 133,
        "meta_bstar": 1.0922436e-05,
        "meta_mean_motion_dot": 2.6e-07,
        "meta_mean_motion_ddot": 0,
        "tle_line1": "1 66956U 25287D   25352.62166759  .00000026  00000+0  10922-4 0  9990",
        "tle_line2": "2 66956  86.4971 344.0126 0007676 176.3616 183.7600 13.67770338  1332"
      },
      "geometry": {
        "type": "Point",
        "coordinates": [
          -17.084640293278795,
          -10.423317494265872
        ]
      }
    },
    {
      "type": "Feature",
      "properties": {
        "norad_id": 66957,
        "name": "HULIANWANG DIGUI-118",
        "group": "last-30-days",
        "lat": -5.718568621083418,
        "lon": -16.794547716488406,
        "alt_km": 1016.4964393037872,
        "timestamp": "2025-12-19T20:42:58.815161+00:00",
        "meta_object_name": "HULIANWANG DIGUI-118",
        "meta_object_id": "2025-287E",
        "meta_epoch": "2025-12-18T14:53:59.369856",
        "meta_mean_motion": 13.67900054,
        "meta_eccentricity": 0.00077413,
        "meta_inclination": 86.4947,
        "meta_ra_of_asc_node": 344.0095,
        "meta_arg_of_pericenter": 174.0723,
        "meta_mean_anomaly": 186.0529,
        "meta_ephemeris_type": 0,
        "meta_classification_type": "U",
        "meta_norad_cat_id": 66957,
        "meta_element_set_no": 999,
        "meta_rev_at_epoch": 133,
        "meta_bstar": 0.00014230709,
        "meta_mean_motion_dot": 1.37e-06,
        "meta_mean_motion_ddot": 0,
        "tle_line1": "1 66957U 25287E   25352.62082604  .00000137  00000+0  14231-3 0  9996",
        "tle_line2": "2 66957  86.4947 344.0095 0007741 174.0723 186.0529 13.67900054  1334"
      },
      "geometry": {
        "type": "Point",
        "coordinates": [
          -16.794547716488406,
          -5.718568621083418
        ]
      }
    },
    {
      "type": "Feature",
      "properties": {
        "norad_id": 66958,
        "name": "CZ-6A R/B",
        "group": "last-30-days",
        "lat": -64.569175700551,
        "lon": -23.98965184000186,
        "alt_km": 982.9023867468795,
        "timestamp": "2025-12-19T20:42:58.815173+00:00",
        "meta_object_name": "CZ-6A R/B",
        "meta_object_id": "2025-287F",
        "meta_epoch": "2025-12-19T07:15:22.823136",
        "meta_mean_motion": 13.94920728,
        "meta_eccentricity": 0.01073108,
        "meta_inclination": 86.506,
        "meta_ra_of_asc_node": 343.6057,
        "meta_arg_of_pericenter": 82.4261,
        "meta_mean_anomaly": 278.9087,
        "meta_ephemeris_type": 0,
        "meta_classification_type": "U",
        "meta_norad_cat_id": 66958,
        "meta_element_set_no": 999,
        "meta_rev_at_epoch": 145,
        "meta_bstar": 3.5334973e-05,
        "meta_mean_motion_dot": 6.9e-07,
        "meta_mean_motion_ddot": 0,
        "tle_line1": "1 66958U 25287F   25353.30234749  .00000069  00000+0  35335-4 0  9995",
        "tle_line2": "2 66958  86.5060 343.6057 0107310  82.4261 278.9087 13.94920728  1450"
      },
      "geometry": {
        "type": "Point",
        "coordinates": [
          -23.98965184000186,
          -64.569175700551
        ]
      }
    },
    {
      "type": "Feature",
      "properties": {
        "norad_id": 66959,
        "name": "STARLINK-35887",
        "group": "last-30-days",
        "lat": -30.582914153278914,
        "lon": 84.19121143688393,
        "alt_km": 324.47000238991586,
        "timestamp": "2025-12-19T20:42:58.815184+00:00",
        "meta_object_name": "STARLINK-35887",
        "meta_object_id": "2025-288A",
        "meta_epoch": "2025-12-19T00:00:02.000160",
        "meta_mean_motion": 15.84854291,
        "meta_eccentricity": 0.00018158,
        "meta_inclination": 43.0013,
        "meta_ra_of_asc_node": 128.8571,
        "meta_arg_of_pericenter": 281.1813,
        "meta_mean_anomaly": 143.3932,
        "meta_ephemeris_type": 0,
        "meta_classification_type": "U",
        "meta_norad_cat_id": 66959,
        "meta_element_set_no": 999,
        "meta_rev_at_epoch": 283,
        "meta_bstar": -0.0057598344,
        "meta_mean_motion_dot": -0.01232263,
        "meta_mean_motion_ddot": 0,
        "tle_line1": "1 66959U 25288A   25353.00002315 -.01232263  00000+0 -57598-2 0  9995",
        "tle_line2": "2 66959  43.0013 128.8571 0001815 281.1813 143.3932 15.84854291  2834"
      },
      "geometry": {
        "type": "Point",
        "coordinates": [
          84.19121143688393,
          -30.582914153278914
        ]
      }
    },
    {
      "type": "Feature",
      "properties": {
        "norad_id": 66960,
        "name": "STARLINK-35879",
        "group": "last-30-days",
        "lat": -29.542989737391267,
        "lon": 86.08736172772534,
        "alt_km": 324.37249332192005,
        "timestamp": "2025-12-19T20:42:58.815194+00:00",
        "meta_object_name": "STARLINK-35879",
        "meta_object_id": "2025-288B",
        "meta_epoch": "2025-12-19T00:00:02.000160",
        "meta_mean_motion": 15.84882136,
        "meta_eccentricity": 0.00018436,
        "meta_inclination": 43.0012,
        "meta_ra_of_asc_node": 128.8521,
        "meta_arg_of_pericenter": 280.0289,
        "meta_mean_anomaly": 146.4207,
        "meta_ephemeris_type": 0,
        "meta_classification_type": "U",
        "meta_norad_cat_id": 66960,
        "meta_element_set_no": 999,
        "meta_rev_at_epoch": 283,
        "meta_bstar": -0.0057765684,
        "meta_mean_motion_dot": -0.01236945,
        "meta_mean_motion_ddot": 0,
        "tle_line1": "1 66960U 25288B   25353.00002315 -.01236945  00000+0 -57766-2 0  9995",
        "tle_line2": "2 66960  43.0012 128.8521 0001843 280.0289 146.4207 15.84882136  2834"
      },
      "geometry": {
        "type": "Point",
        "coordinates": [
          86.08736172772534,
          -29.542989737391267
        ]
      }
    },
    {
      "type": "Feature",
      "properties": {
        "norad_id": 66961,
        "name": "STARLINK-35761",
        "group": "last-30-days",
        "lat": -28.406679266921646,
        "lon": 88.0638420790462,
        "alt_km": 324.35602109656884,
        "timestamp": "2025-12-19T20:42:58.815205+00:00",
        "meta_object_name": "STARLINK-35761",
        "meta_object_id": "2025-288C",
        "meta_epoch": "2025-12-19T00:00:02.000160",
        "meta_mean_motion": 15.84910694,
        "meta_eccentricity": 0.00017935,
        "meta_inclination": 43.0012,
        "meta_ra_of_asc_node": 128.8472,
        "meta_arg_of_pericenter": 280.1521,
        "meta_mean_anomaly": 148.332,
        "meta_ephemeris_type": 0,
        "meta_classification_type": "U",
        "meta_norad_cat_id": 66961,
        "meta_element_set_no": 999,
        "meta_rev_at_epoch": 283,
        "meta_bstar": -0.0058502859,
        "meta_mean_motion_dot": -0.01252435,
        "meta_mean_motion_ddot": 0,
        "tle_line1": "1 66961U 25288C   25353.00002315 -.01252435  00000+0 -58503-2 0  9998",
        "tle_line2": "2 66961  43.0012 128.8472 0001793 280.1521 148.3320 15.84910694  2832"
      },
      "geometry": {
        "type": "Point",
        "coordinates": [
          88.0638420790462,
          -28.406679266921646
        ]
      }
    }
  ]
}